HIMAWARI-8              
1 40267U 14060A   24252.75034135 -.00000268  00000+0  00000+0 0  9998
2 40267   0.0197 233.0711 0000901 274.2482 251.7577  1.00273621 36278
